[{"OBJECT_NAME":"HAWK-7A","OBJECT_ID":"2023-054P","EPOCH":"2026-03-03T15:46:09.288480","MEAN_MOTION":15.26138263,"ECCENTRICITY":0.0004515,"INCLINATION":97.2847,"RA_OF_ASC_NODE":312.6787,"ARG_OF_PERICENTER":62.934,"MEAN_ANOMALY":297.2359,"EPHEMERIS_TYPE":0,"CLASSIFICATION_TYPE":"U","NORAD_CAT_ID":56191,"ELEMENT_SET_NO":999,"REV_AT_EPOCH":16092,"BSTAR":0.00033463,"MEAN_MOTION_DOT":8.574e-5,"MEAN_MOTION_DDOT":0},{"OBJECT_NAME":"HAWK-7B","OBJECT_ID":"2023-054R","EPOCH":"2026-03-03T17:20:23.757216","MEAN_MOTION":15.26141793,"ECCENTRICITY":0.0003956,"INCLINATION":97.2879,"RA_OF_ASC_NODE":310.9666,"ARG_OF_PERICENTER":72.9635,"MEAN_ANOMALY":287.2037,"EPHEMERIS_TYPE":0,"CLASSIFICATION_TYPE":"U","NORAD_CAT_ID":56193,"ELEMENT_SET_NO":999,"REV_AT_EPOCH":16093,"BSTAR":0.0003342,"MEAN_MOTION_DOT":8.563e-5,"MEAN_MOTION_DDOT":0},{"OBJECT_NAME":"HAWK-7C","OBJECT_ID":"2023-054Y","EPOCH":"2026-03-03T17:20:13.380576","MEAN_MOTION":15.26101671,"ECCENTRICITY":0.0003991,"INCLINATION":97.2851,"RA_OF_ASC_NODE":311.7697,"ARG_OF_PERICENTER":64.5941,"MEAN_ANOMALY":295.571,"EPHEMERIS_TYPE":0,"CLASSIFICATION_TYPE":"U","NORAD_CAT_ID":56200,"ELEMENT_SET_NO":999,"REV_AT_EPOCH":16093,"BSTAR":0.00033042,"MEAN_MOTION_DOT":8.455e-5,"MEAN_MOTION_DDOT":0}]
