HAWK-7A                 
1 56191U 23054P   26062.65705195  .00008574  00000+0  33463-3 0  9995
2 56191  97.2847 312.6787 0004515  62.9340 297.2359 15.26138263160926
HAWK-7B                 
1 56193U 23054R   26062.72249719  .00008563  00000+0  33420-3 0  9991
2 56193  97.2879 310.9666 0003956  72.9635 287.2037 15.26141793160931
HAWK-7C                 
1 56200U 23054Y   26062.72237709  .00008455  00000+0  33042-3 0  9996
2 56200  97.2851 311.7697 0003991  64.5941 295.5710 15.26101671160930
